RISAT-2BR2              
1 46905U 20081A   26068.52426450  .00004901  00000+0  37609-3 0  9996
2 46905  36.8980  95.9121 0010905  52.9142 307.2595 15.01602463292489
STARLINK-4372           
1 53233U 22084AW  26068.71464970  .00000650  00000+0  55145-4 0  9996
2 53233  97.6049 130.2431 0001650 103.2587 256.8821 15.01261338199321
